{
"type": "FeatureCollection",
"name": "Ibadan_local_gvt",
"crs": { "type": "name", "properties": { "name": "urn:ogc:def:crs:OGC:1.3:CRS84" } },
"features": [
{ "type": "Feature", "properties": { "GID_2": "NGA.31.2_1", "GID_0": "NGA", "COUNTRY": "Nigeria", "GID_1": "NGA.31_1", "NAME_1": "Oyo", "NL_NAME_1": "NA", "NAME_2": "Akinyele", "VARNAME_2": "NA", "NL_NAME_2": "NA", "TYPE_2": "Local Authority", "ENGTYPE_2": "Local Authority", "CC_2": "NA", "HASC_2": "NA" }, "geometry": { "type": "MultiPolygon", "coordinates": [ [ [ [ 4.052297115000101, 7.679461957000058 ], [ 4.047089101000154, 7.668124197999987 ], [ 4.044051171000149, 7.665870190000021 ], [ 4.0285639760001, 7.650446892000048 ], [ 4.03087711400002, 7.636333943000182 ], [ 4.035253049000119, 7.621264935 ], [ 4.045258998000179, 7.611865044000012 ], [ 4.058245182000121, 7.601029874000062 ], [ 4.05942821400015, 7.600204945000087 ], [ 4.051610946000096, 7.594885826000109 ], [ 4.046460152000066, 7.590134144000046 ], [ 4.03963613500008, 7.581954003000078 ], [ 4.022827148999966, 7.569567205000169 ], [ 4.009728908000056, 7.558496951000109 ], [ 4.005299091000097, 7.555578232000073 ], [ 3.999383926000178, 7.546461105000049 ], [ 3.995088099999975, 7.53754711199997 ], [ 3.992863893000106, 7.528368949000082 ], [ 3.989295005000031, 7.521746159000088 ], [ 3.985873938, 7.509823800000106 ], [ 3.985721111000089, 7.500379085000191 ], [ 3.986557007000158, 7.495063781000056 ], [ 3.98832798, 7.490426064000076 ], [ 3.979101895000042, 7.490582944000096 ], [ 3.976901055000042, 7.482783795000046 ], [ 3.976665974000014, 7.482559205000143 ], [ 3.97589302, 7.477503776000106 ], [ 3.973263024, 7.471786976000146 ], [ 3.970175027000039, 7.466308116000107 ], [ 3.960046052000166, 7.453347206000103 ], [ 3.949903965000033, 7.439692974000138 ], [ 3.943586111000116, 7.434040069000048 ], [ 3.936861038000075, 7.431849957 ], [ 3.931536914000105, 7.430788039000049 ], [ 3.925276041000188, 7.428821087000017 ], [ 3.923959015999969, 7.426846982000029 ], [ 3.920464993000166, 7.430745125000101 ], [ 3.912045955999986, 7.438031196000111 ], [ 3.909590960000116, 7.443140983000035 ], [ 3.906807900000047, 7.4422678950001 ], [ 3.902422905000037, 7.44211101500008 ], [ 3.899863957000036, 7.440771102000156 ], [ 3.893410920000179, 7.441110135000031 ], [ 3.892004967000105, 7.439752102000057 ], [ 3.891063928000165, 7.438617229000045 ], [ 3.887986898000122, 7.436841011000126 ], [ 3.887569904000088, 7.436602116000188 ], [ 3.88522005100009, 7.433876039000154 ], [ 3.883100987000034, 7.431148053000186 ], [ 3.879916907000052, 7.433965206000153 ], [ 3.871926068000107, 7.439170837000177 ], [ 3.868400098000052, 7.435083866000127 ], [ 3.866996050000068, 7.433956147 ], [ 3.863492965000034, 7.43124818800004 ], [ 3.860903979000057, 7.428067207000026 ], [ 3.857856989000027, 7.425121784000112 ], [ 3.856874943000093, 7.421452999000053 ], [ 3.85913300600015, 7.418418885 ], [ 3.856781006000062, 7.415692807000028 ], [ 3.856264114000112, 7.412247181000055 ], [ 3.856026888000031, 7.412133217000019 ], [ 3.85512590400009, 7.413188935000164 ], [ 3.854496956000105, 7.417116166000142 ], [ 3.855056048000165, 7.423096181000119 ], [ 3.856488942000055, 7.426067830000079 ], [ 3.857690096000113, 7.429041862000076 ], [ 3.858243942000115, 7.434794902000021 ], [ 3.859450101, 7.437998772000128 ], [ 3.86163306300017, 7.444644928000059 ], [ 3.861715076999985, 7.449711801000149 ], [ 3.861380101000179, 7.457553864000033 ], [ 3.857847929000116, 7.467290879000188 ], [ 3.856343030000062, 7.474227905000021 ], [ 3.851427078000086, 7.483990192000135 ], [ 3.849656105, 7.48862791199997 ], [ 3.845436097000118, 7.498606205000044 ], [ 3.840244056000131, 7.505608083000084 ], [ 3.834837913000172, 7.513761997000131 ], [ 3.826978921999967, 7.527030944000103 ], [ 3.822765112000013, 7.537471771000071 ], [ 3.813270092000096, 7.549383164000176 ], [ 3.807662964000144, 7.559385778000035 ], [ 3.790843011000163, 7.574876786000118 ], [ 3.782742977000169, 7.587458133000041 ], [ 3.787753106000025, 7.59774208000016 ], [ 3.79086399, 7.604601861000106 ], [ 3.801640034000059, 7.614789964000124 ], [ 3.812588930000061, 7.621284961000072 ], [ 3.82050204300009, 7.625759125000059 ], [ 3.834944963000169, 7.634269237000069 ], [ 3.842245102000106, 7.643592834000117 ], [ 3.840801955000188, 7.654215814000111 ], [ 3.842755079000142, 7.660867215000053 ], [ 3.843300104000036, 7.662291050000022 ], [ 3.84439897600015, 7.662683011000183 ], [ 3.853190898000037, 7.664377213000023 ], [ 3.871438025000145, 7.66567993100017 ], [ 3.884051084000077, 7.661089898000114 ], [ 3.895754099000158, 7.65720415100003 ], [ 3.906548023000141, 7.654256821000047 ], [ 3.917807102999973, 7.651528835000079 ], [ 3.934133053000096, 7.648259162000045 ], [ 3.952974081000036, 7.643560887000035 ], [ 3.968894005000095, 7.643753051000147 ], [ 3.97678709000013, 7.646845818000145 ], [ 3.986133099000085, 7.654288770000107 ], [ 3.995162963000041, 7.65621090000019 ], [ 4.001403808000134, 7.657025813000189 ], [ 4.024719238000159, 7.658012867000139 ], [ 4.032350063000081, 7.659037113000124 ], [ 4.037947178000024, 7.662860870999964 ], [ 4.047320842000033, 7.671917915999984 ], [ 4.051814080000042, 7.678752899000017 ], [ 4.052297115000101, 7.679461957000058 ] ] ] ] } },
{ "type": "Feature", "properties": { "GID_2": "NGA.31.5_1", "GID_0": "NGA", "COUNTRY": "Nigeria", "GID_1": "NGA.31_1", "NAME_1": "Oyo", "NL_NAME_1": "NA", "NAME_2": "Egbeda", "VARNAME_2": "NA", "NL_NAME_2": "NA", "TYPE_2": "Local Authority", "ENGTYPE_2": "Local Authority", "CC_2": "NA", "HASC_2": "NA" }, "geometry": { "type": "MultiPolygon", "coordinates": [ [ [ [ 4.143963813000141, 7.458607198000152 ], [ 4.140841007000063, 7.439746857000046 ], [ 4.138717175000181, 7.422482968000111 ], [ 4.133121967000136, 7.404812811999989 ], [ 4.127795220000053, 7.389447212000164 ], [ 4.124467850000087, 7.369204044000185 ], [ 4.121724129000143, 7.356561183999986 ], [ 4.121095181000157, 7.346190930000148 ], [ 4.12072086400002, 7.322896004000029 ], [ 4.119081975000029, 7.31752920200006 ], [ 4.112412930000062, 7.31804609400001 ], [ 4.110811234000039, 7.318764210000097 ], [ 4.105990886000029, 7.320227146000036 ], [ 4.096839905000024, 7.324991227000112 ], [ 4.08722209900003, 7.329302789000167 ], [ 4.08195686300013, 7.331925869000145 ], [ 4.077629090000073, 7.335224150999977 ], [ 4.072566985000037, 7.33600092000006 ], [ 4.061276913000086, 7.336884976000022 ], [ 4.048641204000035, 7.340092181999978 ], [ 4.040625096000099, 7.34368419700013 ], [ 4.034464837000087, 7.347937107000121 ], [ 4.025309086000107, 7.352240086000052 ], [ 4.012081146000185, 7.361680031000162 ], [ 4.005207061000135, 7.364562988000046 ], [ 3.99995589200006, 7.367877006000128 ], [ 3.993283033000125, 7.36891221999997 ], [ 3.98730898000008, 7.370396137000114 ], [ 3.98176908500011, 7.370258808000017 ], [ 3.970222949000117, 7.369532109000033 ], [ 3.957514048000064, 7.368134975999965 ], [ 3.949635028999978, 7.365964889000111 ], [ 3.945223092999981, 7.364195824000035 ], [ 3.943119049000188, 7.362389089000033 ], [ 3.943348884999978, 7.362383844000021 ], [ 3.942531109000186, 7.35456180500006 ], [ 3.941446066000026, 7.352486135000049 ], [ 3.940896988000077, 7.353438855000036 ], [ 3.940712929000028, 7.356207847000178 ], [ 3.940273046000129, 7.357597827000063 ], [ 3.940331936000064, 7.361283780000122 ], [ 3.939748049000116, 7.36797523600012 ], [ 3.940696955000135, 7.36957311600014 ], [ 3.942131996000114, 7.372773171000176 ], [ 3.943816900000115, 7.377123832000166 ], [ 3.945485115000167, 7.380321027000093 ], [ 3.946893931000034, 7.381909847000088 ], [ 3.949706078000133, 7.384628774000078 ], [ 3.951360940000086, 7.387134076000109 ], [ 3.953478097000186, 7.389630795000187 ], [ 3.954456090000178, 7.393073082000114 ], [ 3.954226017000053, 7.393077850000168 ], [ 3.953600883000036, 7.397234917000162 ], [ 3.951788903000022, 7.399337768000123 ], [ 3.95248198500002, 7.399326802000132 ], [ 3.95429396600008, 7.397222996000153 ], [ 3.955952883000123, 7.399958134000144 ], [ 3.961744070000123, 7.401473998000142 ], [ 3.971550941000032, 7.408911229000068 ], [ 3.984110117000171, 7.415151118999972 ], [ 3.991405009000175, 7.424012184000162 ], [ 4.006010056000036, 7.428373814000054 ], [ 4.022704124000029, 7.433620930000075 ], [ 4.036335945000189, 7.435001849 ], [ 4.053461075000143, 7.438399791000165 ], [ 4.070353984000121, 7.441571237 ], [ 4.082091809000133, 7.439989090000097 ], [ 4.091558933000044, 7.440519810000126 ], [ 4.104042053000114, 7.442152024 ], [ 4.114745139000036, 7.447731018000127 ], [ 4.120132924000018, 7.45293903400011 ], [ 4.132423877000122, 7.456877232000181 ], [ 4.140979766000044, 7.458117008000045 ], [ 4.143963813000141, 7.458607198000152 ] ] ] ] } },
{ "type": "Feature", "properties": { "GID_2": "NGA.31.6_1", "GID_0": "NGA", "COUNTRY": "Nigeria", "GID_1": "NGA.31_1", "NAME_1": "Oyo", "NL_NAME_1": "NA", "NAME_2": "Ibadan North", "VARNAME_2": "NA", "NL_NAME_2": "NA", "TYPE_2": "Local Authority", "ENGTYPE_2": "Local Authority", "CC_2": "NA", "HASC_2": "NA" }, "geometry": { "type": "MultiPolygon", "coordinates": [ [ [ [ 3.887986898000122, 7.436841011000126 ], [ 3.891063928000165, 7.438617229000045 ], [ 3.892004967000105, 7.439752102000057 ], [ 3.893410920000179, 7.441110135000031 ], [ 3.899863957000036, 7.440771102000156 ], [ 3.902422905000037, 7.44211101500008 ], [ 3.906807900000047, 7.4422678950001 ], [ 3.909590960000116, 7.443140983000035 ], [ 3.912045955999986, 7.438031196000111 ], [ 3.920464993000166, 7.430745125000101 ], [ 3.923959015999969, 7.426846982000029 ], [ 3.926127910000048, 7.424428941000087 ], [ 3.934995889000049, 7.416442872 ], [ 3.934926033000124, 7.412066937000077 ], [ 3.93831300700009, 7.409372806000022 ], [ 3.93715000200001, 7.406960010000034 ], [ 3.935687066000128, 7.402145862000111 ], [ 3.932168006000097, 7.398518085000092 ], [ 3.932750941000108, 7.391826153000068 ], [ 3.931785106000063, 7.389078139999981 ], [ 3.929438113000117, 7.3865838050001 ], [ 3.923604965000095, 7.382534028000123 ], [ 3.920573950000062, 7.380513191000034 ], [ 3.916842938000059, 7.378039837000188 ], [ 3.914499998, 7.37577676899997 ], [ 3.912691116000076, 7.378112793000184 ], [ 3.907273054000143, 7.38534689 ], [ 3.908704042000068, 7.388316154 ], [ 3.90922904100006, 7.392224790000114 ], [ 3.907433032000085, 7.395249844000148 ], [ 3.90512800200014, 7.395521164 ], [ 3.899168015000043, 7.397695066000097 ], [ 3.89638590900006, 7.396820068000181 ], [ 3.889734983000039, 7.399238111000159 ], [ 3.889297009000074, 7.400857926000128 ], [ 3.888853074, 7.401785850000181 ], [ 3.885915041000032, 7.405523778000031 ], [ 3.885482073000048, 7.407374859000129 ], [ 3.885993005000046, 7.410359860000142 ], [ 3.886509896000121, 7.413808823000124 ], [ 3.886351109000032, 7.418189048999977 ], [ 3.886907100000144, 7.424169064000182 ], [ 3.887692929000025, 7.429916858000013 ], [ 3.887782096000024, 7.435447215000124 ], [ 3.887986898000122, 7.436841011000126 ] ] ] ] } },
{ "type": "Feature", "properties": { "GID_2": "NGA.31.7_1", "GID_0": "NGA", "COUNTRY": "Nigeria", "GID_1": "NGA.31_1", "NAME_1": "Oyo", "NL_NAME_1": "NA", "NAME_2": "Ibadan North-East", "VARNAME_2": "NA", "NL_NAME_2": "NA", "TYPE_2": "Local Authority", "ENGTYPE_2": "Local Authority", "CC_2": "NA", "HASC_2": "NA" }, "geometry": { "type": "MultiPolygon", "coordinates": [ [ [ [ 3.951788903000022, 7.399337768000123 ], [ 3.953600883000036, 7.397234917000162 ], [ 3.954226017000053, 7.393077850000168 ], [ 3.954456090000178, 7.393073082000114 ], [ 3.953478097000186, 7.389630795000187 ], [ 3.951360940000086, 7.387134076000109 ], [ 3.949706078000133, 7.384628774000078 ], [ 3.946893931000034, 7.381909847000088 ], [ 3.945485115000167, 7.380321027000093 ], [ 3.943816900000115, 7.377123832000166 ], [ 3.942131996000114, 7.372773171000176 ], [ 3.940696955000135, 7.36957311600014 ], [ 3.939748049000116, 7.36797523600012 ], [ 3.940331936000064, 7.361283780000122 ], [ 3.940273046000129, 7.357597827000063 ], [ 3.940712929000028, 7.356207847000178 ], [ 3.940896988000077, 7.353438855000036 ], [ 3.941446066000026, 7.352486135000049 ], [ 3.941339016000086, 7.352279186000089 ], [ 3.938694954000141, 7.34564208900008 ], [ 3.93768596700005, 7.340359212000067 ], [ 3.936434984000186, 7.338191033000157 ], [ 3.933567047000111, 7.34250307200017 ], [ 3.930860042000063, 7.346233845000029 ], [ 3.92881107400018, 7.347881794000045 ], [ 3.926107884000146, 7.351846218000162 ], [ 3.92408800200019, 7.355337144000146 ], [ 3.916548967000153, 7.359842776999983 ], [ 3.913119078000136, 7.361743927000077 ], [ 3.906404971000029, 7.360243798000056 ], [ 3.901587010000071, 7.357770920000064 ], [ 3.902021886000171, 7.360319136999976 ], [ 3.900482894, 7.364953042000138 ], [ 3.899708987, 7.366143227000123 ], [ 3.900979995, 7.367249967000021 ], [ 3.904485941000189, 7.369956016 ], [ 3.907041073000073, 7.371063233000086 ], [ 3.91169500400008, 7.37351989800004 ], [ 3.914499998, 7.37577676899997 ], [ 3.916842938000059, 7.378039837000188 ], [ 3.920573950000062, 7.380513191000034 ], [ 3.923604965000095, 7.382534028000123 ], [ 3.929438113000117, 7.3865838050001 ], [ 3.931785106000063, 7.389078139999981 ], [ 3.932750941000108, 7.391826153000068 ], [ 3.932168006000097, 7.398518085000092 ], [ 3.935687066000128, 7.402145862000111 ], [ 3.93715000200001, 7.406960010000034 ], [ 3.93831300700009, 7.409372806000022 ], [ 3.946768045000113, 7.40264988000007 ], [ 3.951788903000022, 7.399337768000123 ] ] ] ] } },
{ "type": "Feature", "properties": { "GID_2": "NGA.31.8_1", "GID_0": "NGA", "COUNTRY": "Nigeria", "GID_1": "NGA.31_1", "NAME_1": "Oyo", "NL_NAME_1": "NA", "NAME_2": "Ibadan North-West", "VARNAME_2": "NA", "NL_NAME_2": "NA", "TYPE_2": "Local Authority", "ENGTYPE_2": "Local Authority", "CC_2": "NA", "HASC_2": "NA" }, "geometry": { "type": "MultiPolygon", "coordinates": [ [ [ [ 3.856026888000031, 7.412133217000019 ], [ 3.856264114000112, 7.412247181000055 ], [ 3.856781006000062, 7.415692807000028 ], [ 3.85913300600015, 7.418418885 ], [ 3.856874943000093, 7.421452999000053 ], [ 3.857856989000027, 7.425121784000112 ], [ 3.860903979000057, 7.428067207000026 ], [ 3.863492965000034, 7.43124818800004 ], [ 3.866996050000068, 7.433956147 ], [ 3.868400098000052, 7.435083866000127 ], [ 3.871926068000107, 7.439170837000177 ], [ 3.879916907000052, 7.433965206000153 ], [ 3.883100987000034, 7.431148053000186 ], [ 3.88522005100009, 7.433876039000154 ], [ 3.887569904000088, 7.436602116000188 ], [ 3.887986898000122, 7.436841011000126 ], [ 3.887782096000024, 7.435447215000124 ], [ 3.887692929000025, 7.429916858000013 ], [ 3.886907100000144, 7.424169064000182 ], [ 3.886351109000032, 7.418189048999977 ], [ 3.886509896000121, 7.413808823000124 ], [ 3.885993005000046, 7.410359860000142 ], [ 3.885482073000048, 7.407374859000129 ], [ 3.885915041000032, 7.405523778000031 ], [ 3.888853074, 7.401785850000181 ], [ 3.889297009000074, 7.400857926000128 ], [ 3.889734983000039, 7.399238111000159 ], [ 3.89638590900006, 7.396820068000181 ], [ 3.899168015000043, 7.397695066000097 ], [ 3.90512800200014, 7.395521164 ], [ 3.907433032000085, 7.395249844000148 ], [ 3.90922904100006, 7.392224790000114 ], [ 3.908704042000068, 7.388316154 ], [ 3.907273054000143, 7.38534689 ], [ 3.912691116000076, 7.378112793000184 ], [ 3.914499998, 7.37577676899997 ], [ 3.91169500400008, 7.37351989800004 ], [ 3.907041073000073, 7.371063233000086 ], [ 3.904485941000189, 7.369956016 ], [ 3.900979995, 7.367249967000021 ], [ 3.899708987, 7.366143227000123 ], [ 3.893955946000176, 7.374973774000068 ], [ 3.887789011000166, 7.37876176900005 ], [ 3.88205909800007, 7.381164074000139 ], [ 3.87904596400017, 7.380293846000086 ], [ 3.877409935000117, 7.378940105000083 ], [ 3.874177933, 7.37876176900005 ], [ 3.869329929000173, 7.378615857000057 ], [ 3.865897893000067, 7.380287170000031 ], [ 3.863368035000178, 7.380787849000171 ], [ 3.859040022000102, 7.384088993000091 ], [ 3.852674008000065, 7.389956951000158 ], [ 3.847107888000153, 7.39501476300012 ], [ 3.846781970000166, 7.396508218000122 ], [ 3.848196029000178, 7.398328781000032 ], [ 3.848006010000177, 7.400867940000069 ], [ 3.847363949000112, 7.403871060000085 ], [ 3.849982023000166, 7.408896923000157 ], [ 3.852545977000034, 7.41046714700002 ], [ 3.856026888000031, 7.412133217000019 ] ] ] ] } },
{ "type": "Feature", "properties": { "GID_2": "NGA.31.9_1", "GID_0": "NGA", "COUNTRY": "Nigeria", "GID_1": "NGA.31_1", "NAME_1": "Oyo", "NL_NAME_1": "NA", "NAME_2": "Ibadan South-East", "VARNAME_2": "NA", "NL_NAME_2": "NA", "TYPE_2": "Local Authority", "ENGTYPE_2": "Local Authority", "CC_2": "NA", "HASC_2": "NA" }, "geometry": { "type": "MultiPolygon", "coordinates": [ [ [ [ 3.901587010000071, 7.357770920000064 ], [ 3.906404971000029, 7.360243798000056 ], [ 3.913119078000136, 7.361743927000077 ], [ 3.916548967000153, 7.359842776999983 ], [ 3.92408800200019, 7.355337144000146 ], [ 3.926107884000146, 7.351846218000162 ], [ 3.92881107400018, 7.347881794000045 ], [ 3.930860042000063, 7.346233845000029 ], [ 3.933567047000111, 7.34250307200017 ], [ 3.936434984000186, 7.338191033000157 ], [ 3.935312986000099, 7.33625221200009 ], [ 3.933428050000089, 7.333748817000128 ], [ 3.928520918000174, 7.329916 ], [ 3.924990892000096, 7.325596810000036 ], [ 3.917562962000147, 7.322727203 ], [ 3.912421941000105, 7.318667888000164 ], [ 3.904278039000076, 7.314428807000127 ], [ 3.893407107000144, 7.312537193000139 ], [ 3.882320880000066, 7.311803819000033 ], [ 3.874186992000148, 7.313754082000173 ], [ 3.874305010000114, 7.315394879000166 ], [ 3.875317097000107, 7.320909023000013 ], [ 3.87752294500001, 7.328936099000032 ], [ 3.880369901000051, 7.333728791000112 ], [ 3.88438391700015, 7.33941984300003 ], [ 3.889816999000118, 7.347392082000056 ], [ 3.89428210300008, 7.352385998000045 ], [ 3.899890899000127, 7.356898784000066 ], [ 3.901587010000071, 7.357770920000064 ] ] ] ] } },
{ "type": "Feature", "properties": { "GID_2": "NGA.31.10_1", "GID_0": "NGA", "COUNTRY": "Nigeria", "GID_1": "NGA.31_1", "NAME_1": "Oyo", "NL_NAME_1": "NA", "NAME_2": "Ibadan South-West", "VARNAME_2": "NA", "NL_NAME_2": "NA", "TYPE_2": "Local Authority", "ENGTYPE_2": "Local Authority", "CC_2": "NA", "HASC_2": "NA" }, "geometry": { "type": "MultiPolygon", "coordinates": [ [ [ [ 3.899708987, 7.366143227000123 ], [ 3.900482894, 7.364953042000138 ], [ 3.902021886000171, 7.360319136999976 ], [ 3.901587010000071, 7.357770920000064 ], [ 3.899890899000127, 7.356898784000066 ], [ 3.89428210300008, 7.352385998000045 ], [ 3.889816999000118, 7.347392082000056 ], [ 3.88438391700015, 7.33941984300003 ], [ 3.880369901000051, 7.333728791000112 ], [ 3.87752294500001, 7.328936099000032 ], [ 3.875317097000107, 7.320909023000013 ], [ 3.874305010000114, 7.315394879000166 ], [ 3.874186992000148, 7.313754082000173 ], [ 3.874049901999967, 7.313786029000084 ], [ 3.868985891000136, 7.314564228000052 ], [ 3.864784956000108, 7.311638833000075 ], [ 3.859586955000168, 7.311366081000017 ], [ 3.859482050000054, 7.311730863000037 ], [ 3.853842973000042, 7.319660187000068 ], [ 3.850958108000043, 7.326622010000108 ], [ 3.846889972000042, 7.3317599290001 ], [ 3.843983889000185, 7.337569236000149 ], [ 3.840126991000091, 7.341550828000095 ], [ 3.839251994999984, 7.344562054000164 ], [ 3.835413932000165, 7.349696159000132 ], [ 3.833197116000065, 7.355261803000076 ], [ 3.833012104000034, 7.358030797000026 ], [ 3.83099293700019, 7.361523151000142 ], [ 3.831043005000083, 7.364748002000056 ], [ 3.832510949000039, 7.369791986000109 ], [ 3.835582972000111, 7.374348163999969 ], [ 3.838874102000091, 7.378208160000156 ], [ 3.840056897000181, 7.380032063000158 ], [ 3.84264397600009, 7.382983209000088 ], [ 3.846179009000082, 7.387763023000161 ], [ 3.845763922000117, 7.390535831000079 ], [ 3.847641945000021, 7.392576218000045 ], [ 3.847107888000153, 7.39501476300012 ], [ 3.852674008000065, 7.389956951000158 ], [ 3.859040022000102, 7.384088993000091 ], [ 3.863368035000178, 7.380787849000171 ], [ 3.865897893000067, 7.380287170000031 ], [ 3.869329929000173, 7.378615857000057 ], [ 3.874177933, 7.37876176900005 ], [ 3.877409935000117, 7.378940105000083 ], [ 3.87904596400017, 7.380293846000086 ], [ 3.88205909800007, 7.381164074000139 ], [ 3.887789011000166, 7.37876176900005 ], [ 3.893955946000176, 7.374973774000068 ], [ 3.899708987, 7.366143227000123 ] ] ] ] } },
{ "type": "Feature", "properties": { "GID_2": "NGA.31.14_1", "GID_0": "NGA", "COUNTRY": "Nigeria", "GID_1": "NGA.31_1", "NAME_1": "Oyo", "NL_NAME_1": "NA", "NAME_2": "Ido", "VARNAME_2": "NA", "NL_NAME_2": "NA", "TYPE_2": "Local Authority", "ENGTYPE_2": "Local Authority", "CC_2": "NA", "HASC_2": "NA" }, "geometry": { "type": "MultiPolygon", "coordinates": [ [ [ [ 3.752196073000107, 7.264260769000032 ], [ 3.74547910800004, 7.275770188000138 ], [ 3.73211908400009, 7.27761220900004 ], [ 3.722259998000027, 7.28193283100012 ], [ 3.715189934000023, 7.287360191000118 ], [ 3.69731402400015, 7.295507908000047 ], [ 3.690571070000146, 7.306925772999989 ], [ 3.692128898000078, 7.317742825000096 ], [ 3.692815065000104, 7.331574918000115 ], [ 3.692596912000113, 7.346804141000121 ], [ 3.691689968, 7.362044811000146 ], [ 3.68764209800014, 7.38310909300003 ], [ 3.685343980000027, 7.398143769 ], [ 3.679780959000084, 7.411158085000181 ], [ 3.673247098000104, 7.421187877000136 ], [ 3.66644096400006, 7.428687096000033 ], [ 3.651952983000115, 7.432161809000036 ], [ 3.633944989000156, 7.432240010000044 ], [ 3.616430043000094, 7.434152127000061 ], [ 3.602082968000047, 7.432092190000049 ], [ 3.589848995000068, 7.43229913700003 ], [ 3.580140113000027, 7.431541920000029 ], [ 3.566298009000093, 7.432240010000044 ], [ 3.541049957999974, 7.427132130000189 ], [ 3.526432038, 7.422537805000104 ], [ 3.521682024000086, 7.414311887 ], [ 3.51503801399997, 7.409563065000043 ], [ 3.514398097000083, 7.412736893000101 ], [ 3.514951945000064, 7.418489933000046 ], [ 3.518769027000076, 7.426259042000083 ], [ 3.524188996000078, 7.433310985000105 ], [ 3.534691095000085, 7.440736770000171 ], [ 3.542520047000039, 7.454198838000082 ], [ 3.548870087000182, 7.461692810000159 ], [ 3.555681944000071, 7.469182016000047 ], [ 3.565293074000181, 7.478697777000036 ], [ 3.569545984000172, 7.484847070000171 ], [ 3.571918965000123, 7.488954067000066 ], [ 3.574351072000013, 7.49674892500019 ], [ 3.570869923000032, 7.509709835000024 ], [ 3.563613891000102, 7.517436026999974 ], [ 3.566456079000034, 7.521996976000139 ], [ 3.571882010000024, 7.529509068000152 ], [ 3.576883078000094, 7.539102077000109 ], [ 3.574115991000042, 7.553434849000098 ], [ 3.57125806900018, 7.562236786000028 ], [ 3.566832066000188, 7.573832990000085 ], [ 3.566334963000145, 7.585824014000139 ], [ 3.564656972000137, 7.59622097100015 ], [ 3.562990904000117, 7.607308865999983 ], [ 3.563914060000116, 7.621579170000189 ], [ 3.570105075000185, 7.63345813799998 ], [ 3.582001925000043, 7.641551018000087 ], [ 3.594091892000051, 7.647565842 ], [ 3.602507114000161, 7.65433693 ], [ 3.610716105000165, 7.662724018000119 ], [ 3.618901014000187, 7.669497967000041 ], [ 3.628604889000087, 7.670485019000012 ], [ 3.63294696700018, 7.682162761000086 ], [ 3.637474059000112, 7.691071988000147 ], [ 3.644299984000099, 7.699481965000075 ], [ 3.646640062000074, 7.701515198000038 ], [ 3.656593085000168, 7.703652858000112 ], [ 3.660408019000158, 7.711422920000189 ], [ 3.665568113000063, 7.716632844000117 ], [ 3.669337988000166, 7.721409798000138 ], [ 3.672209977000023, 7.727811813000017 ], [ 3.678302050000013, 7.733698846000152 ], [ 3.682516098000178, 7.737545966000141 ], [ 3.683418990000121, 7.738417148999986 ], [ 3.686429023000187, 7.737017154000057 ], [ 3.696511983000107, 7.732931137000151 ], [ 3.702666044000125, 7.728218079000101 ], [ 3.71164107200002, 7.72691393000008 ], [ 3.725006104000045, 7.725995065000177 ], [ 3.739000082000075, 7.721149923000041 ], [ 3.74653196200012, 7.716184140000109 ], [ 3.747056962000045, 7.705807209000113 ], [ 3.744894028000147, 7.700543880000112 ], [ 3.741801023000107, 7.694606781000118 ], [ 3.736835003000124, 7.687086106000038 ], [ 3.736212969000121, 7.677187920000108 ], [ 3.741393089000098, 7.669496059999972 ], [ 3.747467041000164, 7.65994596500002 ], [ 3.750406981000026, 7.65621090000019 ], [ 3.756736040000135, 7.648268223000173 ], [ 3.767493964000096, 7.643016816000056 ], [ 3.768635035000102, 7.642305851000117 ], [ 3.778574944000184, 7.64351987800012 ], [ 3.787838935000082, 7.645899772 ], [ 3.797353029000021, 7.649192811000091 ], [ 3.805048942000042, 7.654362201000083 ], [ 3.814071894000165, 7.656053067000187 ], [ 3.826348067000083, 7.659070969000084 ], [ 3.83883094700019, 7.66070318300018 ], [ 3.843300104000036, 7.662291050000022 ], [ 3.842755079000142, 7.660867215000053 ], [ 3.840801955000188, 7.654215814000111 ], [ 3.842245102000106, 7.643592834000117 ], [ 3.834944963000169, 7.634269237000069 ], [ 3.82050204300009, 7.625759125000059 ], [ 3.812588930000061, 7.621284961000072 ], [ 3.801640034000059, 7.614789964000124 ], [ 3.79086399, 7.604601861000106 ], [ 3.787753106000025, 7.59774208000016 ], [ 3.782742977000169, 7.587458133000041 ], [ 3.790843011000163, 7.574876786000118 ], [ 3.807662964000144, 7.559385778000035 ], [ 3.813270092000096, 7.549383164000176 ], [ 3.822765112000013, 7.537471771000071 ], [ 3.826978921999967, 7.527030944000103 ], [ 3.834837913000172, 7.513761997000131 ], [ 3.840244056000131, 7.505608083000084 ], [ 3.845436097000118, 7.498606205000044 ], [ 3.849656105, 7.48862791199997 ], [ 3.851427078000086, 7.483990192000135 ], [ 3.856343030000062, 7.474227905000021 ], [ 3.857847929000116, 7.467290879000188 ], [ 3.861380101000179, 7.457553864000033 ], [ 3.861715076999985, 7.449711801000149 ], [ 3.86163306300017, 7.444644928000059 ], [ 3.859450101, 7.437998772000128 ], [ 3.858243942000115, 7.434794902000021 ], [ 3.857690096000113, 7.429041862000076 ], [ 3.856488942000055, 7.426067830000079 ], [ 3.855056048000165, 7.423096181000119 ], [ 3.854496956000105, 7.417116166000142 ], [ 3.85512590400009, 7.413188935000164 ], [ 3.856026888000031, 7.412133217000019 ], [ 3.852545977000034, 7.41046714700002 ], [ 3.849982023000166, 7.408896923000157 ], [ 3.847363949000112, 7.403871060000085 ], [ 3.848006010000177, 7.400867940000069 ], [ 3.848196029000178, 7.398328781000032 ], [ 3.846781970000166, 7.396508218000122 ], [ 3.847107888000153, 7.39501476300012 ], [ 3.847641945000021, 7.392576218000045 ], [ 3.845763922000117, 7.390535831000079 ], [ 3.846179009000082, 7.387763023000161 ], [ 3.84264397600009, 7.382983209000088 ], [ 3.840056897000181, 7.380032063000158 ], [ 3.838874102000091, 7.378208160000156 ], [ 3.835582972000111, 7.374348163999969 ], [ 3.832510949000039, 7.369791986000109 ], [ 3.831043005000083, 7.364748002000056 ], [ 3.83099293700019, 7.361523151000142 ], [ 3.833012104000034, 7.358030797000026 ], [ 3.833197116000065, 7.355261803000076 ], [ 3.835413932000165, 7.349696159000132 ], [ 3.839251994999984, 7.344562054000164 ], [ 3.840126991000091, 7.341550828000095 ], [ 3.843983889000185, 7.337569236000149 ], [ 3.846889972000042, 7.3317599290001 ], [ 3.850958108000043, 7.326622010000108 ], [ 3.853842973000042, 7.319660187000068 ], [ 3.859482050000054, 7.311730863000037 ], [ 3.859586955000168, 7.311366081000017 ], [ 3.854860068000107, 7.311118126000054 ], [ 3.844772101000046, 7.314973832000021 ], [ 3.832344056000181, 7.316796780000061 ], [ 3.824064016000023, 7.318322182000145 ], [ 3.813477039000077, 7.319884777000027 ], [ 3.80488705700003, 7.316571237000119 ], [ 3.796493053000063, 7.31095314099997 ], [ 3.789238931000114, 7.304626942000141 ], [ 3.784058093000056, 7.298030853000171 ], [ 3.775151968000102, 7.28942489700006 ], [ 3.765544891000047, 7.280141830000161 ], [ 3.757554054000138, 7.271059037000157 ], [ 3.752196073000107, 7.264260769000032 ] ] ] ] } },
{ "type": "Feature", "properties": { "GID_2": "NGA.31.20_1", "GID_0": "NGA", "COUNTRY": "Nigeria", "GID_1": "NGA.31_1", "NAME_1": "Oyo", "NL_NAME_1": "NA", "NAME_2": "Lagelu", "VARNAME_2": "NA", "NL_NAME_2": "NA", "TYPE_2": "Local Authority", "ENGTYPE_2": "Local Authority", "CC_2": "NA", "HASC_2": "NA" }, "geometry": { "type": "MultiPolygon", "coordinates": [ [ [ [ 4.123220920999984, 7.522078992 ], [ 4.127529145000153, 7.516337873000055 ], [ 4.134737968000024, 7.505139827999983 ], [ 4.148694992000173, 7.497289181000156 ], [ 4.146125794000056, 7.481184006000149 ], [ 4.144959927000116, 7.467611789999978 ], [ 4.144422054000131, 7.461373807000143 ], [ 4.143963813000141, 7.458607198000152 ], [ 4.140979766000044, 7.458117008000045 ], [ 4.132423877000122, 7.456877232000181 ], [ 4.120132924000018, 7.45293903400011 ], [ 4.114745139000036, 7.447731018000127 ], [ 4.104042053000114, 7.442152024 ], [ 4.091558933000044, 7.440519810000126 ], [ 4.082091809000133, 7.439989090000097 ], [ 4.070353984000121, 7.441571237 ], [ 4.053461075000143, 7.438399791000165 ], [ 4.036335945000189, 7.435001849 ], [ 4.022704124000029, 7.433620930000075 ], [ 4.006010056000036, 7.428373814000054 ], [ 3.991405009000175, 7.424012184000162 ], [ 3.984110117000171, 7.415151118999972 ], [ 3.971550941000032, 7.408911229000068 ], [ 3.961744070000123, 7.401473998000142 ], [ 3.955952883000123, 7.399958134000144 ], [ 3.95429396600008, 7.397222996000153 ], [ 3.95248198500002, 7.399326802000132 ], [ 3.951788903000022, 7.399337768000123 ], [ 3.946768045000113, 7.40264988000007 ], [ 3.93831300700009, 7.409372806000022 ], [ 3.934926033000124, 7.412066937000077 ], [ 3.934995889000049, 7.416442872 ], [ 3.926127910000048, 7.424428941000087 ], [ 3.923959015999969, 7.426846982000029 ], [ 3.925276041000188, 7.428821087000017 ], [ 3.931536914000105, 7.430788039000049 ], [ 3.936861038000075, 7.431849957 ], [ 3.943586111000116, 7.434040069000048 ], [ 3.949903965000033, 7.439692974000138 ], [ 3.960046052000166, 7.453347206000103 ], [ 3.970175027000039, 7.466308116000107 ], [ 3.973263024, 7.471786976000146 ], [ 3.97589302, 7.477503776000106 ], [ 3.976665974000014, 7.482559205000143 ], [ 3.976901055000042, 7.482783795000046 ], [ 3.979101895000042, 7.490582944000096 ], [ 3.98832798, 7.490426064000076 ], [ 3.986557007000158, 7.495063781000056 ], [ 3.985721111000089, 7.500379085000191 ], [ 3.985873938, 7.509823800000106 ], [ 3.989295005000031, 7.521746159000088 ], [ 3.992863893000106, 7.528368949000082 ], [ 3.995088099999975, 7.53754711199997 ], [ 3.999383926000178, 7.546461105000049 ], [ 4.005299091000097, 7.555578232000073 ], [ 4.009728908000056, 7.558496951000109 ], [ 4.022827148999966, 7.569567205000169 ], [ 4.03963613500008, 7.581954003000078 ], [ 4.046460152000066, 7.590134144000046 ], [ 4.051610946000096, 7.594885826000109 ], [ 4.05942821400015, 7.600204945000087 ], [ 4.066691875000117, 7.59512090700008 ], [ 4.085440158000154, 7.583726883000054 ], [ 4.094723225000052, 7.572262764000186 ], [ 4.105100155000116, 7.557093143000145 ], [ 4.111183166999979, 7.547760010000161 ], [ 4.117359161000138, 7.529891968000015 ], [ 4.123220920999984, 7.522078992 ] ] ] ] } },
{ "type": "Feature", "properties": { "GID_2": "NGA.31.25_1", "GID_0": "NGA", "COUNTRY": "Nigeria", "GID_1": "NGA.31_1", "NAME_1": "Oyo", "NL_NAME_1": "NA", "NAME_2": "Oluyole", "VARNAME_2": "NA", "NL_NAME_2": "NA", "TYPE_2": "Local Authority", "ENGTYPE_2": "Local Authority", "CC_2": "NA", "HASC_2": "NA" }, "geometry": { "type": "MultiPolygon", "coordinates": [ [ [ [ 4.009517193000079, 7.10379123700011 ], [ 4.000572204000093, 7.102088929000104 ], [ 3.981810092000046, 7.098255157000153 ], [ 3.967792988000042, 7.088112832000036 ], [ 3.957443953000052, 7.076293945000145 ], [ 3.945122958000127, 7.070967198000176 ], [ 3.932384968000122, 7.068415166000079 ], [ 3.92234301600007, 7.061433792000116 ], [ 3.906096935000107, 7.056172848000188 ], [ 3.898056030000134, 7.058619022000073 ], [ 3.88094210600002, 7.056834221000088 ], [ 3.872654915000112, 7.058359147000147 ], [ 3.856956959000115, 7.05839776900018 ], [ 3.839549064000153, 7.052694797000072 ], [ 3.836116075000064, 7.054598809000083 ], [ 3.833126068000013, 7.055342198 ], [ 3.831208945000128, 7.050991059000182 ], [ 3.830979109000111, 7.05099487300015 ], [ 3.813400031000072, 7.04898977300013 ], [ 3.785929918000136, 7.049223900000072 ], [ 3.782059907000132, 7.04912901 ], [ 3.769531012000073, 7.048813820000078 ], [ 3.751019955000118, 7.046359063000068 ], [ 3.734885931000122, 7.048018933000094 ], [ 3.726310015000024, 7.045857907000027 ], [ 3.714979886000037, 7.044898987000067 ], [ 3.709049941000103, 7.0493822090001 ], [ 3.714423895000152, 7.067747117000124 ], [ 3.720185995000122, 7.074429035000037 ], [ 3.722657919000028, 7.077295780000156 ], [ 3.726535083000158, 7.080572127999972 ], [ 3.733891965000112, 7.086793899999975 ], [ 3.745862008000131, 7.098817826000072 ], [ 3.757595063000053, 7.110614776000091 ], [ 3.768556119000152, 7.117348194000158 ], [ 3.778495073000045, 7.13240385000006 ], [ 3.775509120000152, 7.147681236000096 ], [ 3.774175883000055, 7.158961774000147 ], [ 3.773680925000178, 7.163169861000085 ], [ 3.771851063000099, 7.178656102000048 ], [ 3.763525963000177, 7.206484796000098 ], [ 3.754085064000151, 7.222332001000041 ], [ 3.755482912000161, 7.237535954000123 ], [ 3.755815030000122, 7.258061886000064 ], [ 3.752196073000107, 7.264260769000032 ], [ 3.757554054000138, 7.271059037000157 ], [ 3.765544891000047, 7.280141830000161 ], [ 3.775151968000102, 7.28942489700006 ], [ 3.784058093000056, 7.298030853000171 ], [ 3.789238931000114, 7.304626942000141 ], [ 3.796493053000063, 7.31095314099997 ], [ 3.80488705700003, 7.316571237000119 ], [ 3.813477039000077, 7.319884777000027 ], [ 3.824064016000023, 7.318322182000145 ], [ 3.832344056000181, 7.316796780000061 ], [ 3.844772101000046, 7.314973832000021 ], [ 3.854860068000107, 7.311118126000054 ], [ 3.859586955000168, 7.311366081000017 ], [ 3.864784956000108, 7.311638833000075 ], [ 3.868985891000136, 7.314564228000052 ], [ 3.874049901999967, 7.313786029000084 ], [ 3.874186992000148, 7.313754082000173 ], [ 3.882320880000066, 7.311803819000033 ], [ 3.893407107000144, 7.312537193000139 ], [ 3.904278039000076, 7.314428807000127 ], [ 3.912421941000105, 7.318667888000164 ], [ 3.917562962000147, 7.322727203 ], [ 3.924990892000096, 7.325596810000036 ], [ 3.928520918000174, 7.329916 ], [ 3.933428050000089, 7.333748817000128 ], [ 3.935312986000099, 7.33625221200009 ], [ 3.936434984000186, 7.338191033000157 ], [ 3.93852210100016, 7.335045815000171 ], [ 3.940740108000057, 7.329477787000087 ], [ 3.948009968000122, 7.322672843000134 ], [ 3.953222990000143, 7.316823959000089 ], [ 3.956815004000134, 7.31077289600006 ], [ 3.962275029000125, 7.306072235000102 ], [ 3.969358921000037, 7.301805020000074 ], [ 3.976872921, 7.295684816000119 ], [ 3.983072996000089, 7.293969155000184 ], [ 3.990158081, 7.289930820999984 ], [ 3.997442007000132, 7.28381586200004 ], [ 4.001959801000055, 7.277980804000038 ], [ 4.006702901000097, 7.271678926000163 ], [ 4.013027190000116, 7.263276099999985 ], [ 4.016306876000044, 7.252161026000124 ], [ 4.018914223000081, 7.242208005000066 ], [ 4.017638206000072, 7.234624862000146 ], [ 4.015656948000128, 7.226363182000114 ], [ 4.01393699700003, 7.219710828000188 ], [ 4.013583183000037, 7.212113857000134 ], [ 4.013402940000162, 7.201057912000124 ], [ 4.012115955000127, 7.192784787000107 ], [ 4.010378838, 7.185208797000143 ], [ 4.009749889000148, 7.174852849000047 ], [ 4.008247853, 7.167504787000098 ], [ 4.007577897000033, 7.154612065000038 ], [ 4.006956099999968, 7.144712924000146 ], [ 4.005401135, 7.134140016 ], [ 4.006827832000056, 7.122593880000181 ], [ 4.007170200000132, 7.115217209000093 ], [ 4.009099961000175, 7.10619783400017 ], [ 4.009517193000079, 7.10379123700011 ] ] ] ] } },
{ "type": "Feature", "properties": { "GID_2": "NGA.31.26_1", "GID_0": "NGA", "COUNTRY": "Nigeria", "GID_1": "NGA.31_1", "NAME_1": "Oyo", "NL_NAME_1": "NA", "NAME_2": "Ona Ara", "VARNAME_2": "NA", "NL_NAME_2": "NA", "TYPE_2": "Local Authority", "ENGTYPE_2": "Local Authority", "CC_2": "NA", "HASC_2": "NA" }, "geometry": { "type": "MultiPolygon", "coordinates": [ [ [ [ 4.077095985000142, 7.112482071000102 ], [ 4.076237202000186, 7.11256408700018 ], [ 4.066717148000123, 7.109035969999979 ], [ 4.056999206000057, 7.107816220000132 ], [ 4.028761865000035, 7.103454113000112 ], [ 4.017245770000102, 7.105264188000035 ], [ 4.009517193000079, 7.10379123700011 ], [ 4.009099961000175, 7.10619783400017 ], [ 4.007170200000132, 7.115217209000093 ], [ 4.006827832000056, 7.122593880000181 ], [ 4.005401135, 7.134140016 ], [ 4.006956099999968, 7.144712924000146 ], [ 4.007577897000033, 7.154612065000038 ], [ 4.008247853, 7.167504787000098 ], [ 4.009749889000148, 7.174852849000047 ], [ 4.010378838, 7.185208797000143 ], [ 4.012115955000127, 7.192784787000107 ], [ 4.013402940000162, 7.201057912000124 ], [ 4.013583183000037, 7.212113857000134 ], [ 4.01393699700003, 7.219710828000188 ], [ 4.015656948000128, 7.226363182000114 ], [ 4.017638206000072, 7.234624862000146 ], [ 4.018914223000081, 7.242208005000066 ], [ 4.016306876000044, 7.252161026000124 ], [ 4.013027190000116, 7.263276099999985 ], [ 4.006702901000097, 7.271678926000163 ], [ 4.001959801000055, 7.277980804000038 ], [ 3.997442007000132, 7.28381586200004 ], [ 3.990158081, 7.289930820999984 ], [ 3.983072996000089, 7.293969155000184 ], [ 3.976872921, 7.295684816000119 ], [ 3.969358921000037, 7.301805020000074 ], [ 3.962275029000125, 7.306072235000102 ], [ 3.956815004000134, 7.31077289600006 ], [ 3.953222990000143, 7.316823959000089 ], [ 3.948009968000122, 7.322672843000134 ], [ 3.940740108000057, 7.329477787000087 ], [ 3.93852210100016, 7.335045815000171 ], [ 3.936434984000186, 7.338191033000157 ], [ 3.93768596700005, 7.340359212000067 ], [ 3.938694954000141, 7.34564208900008 ], [ 3.941339016000086, 7.352279186000089 ], [ 3.941446066000026, 7.352486135000049 ], [ 3.942531109000186, 7.35456180500006 ], [ 3.943348884999978, 7.362383844000021 ], [ 3.943119049000188, 7.362389089000033 ], [ 3.945223092999981, 7.364195824000035 ], [ 3.949635028999978, 7.365964889000111 ], [ 3.957514048000064, 7.368134975999965 ], [ 3.970222949000117, 7.369532109000033 ], [ 3.98176908500011, 7.370258808000017 ], [ 3.98730898000008, 7.370396137000114 ], [ 3.993283033000125, 7.36891221999997 ], [ 3.99995589200006, 7.367877006000128 ], [ 4.005207061000135, 7.364562988000046 ], [ 4.012081146000185, 7.361680031000162 ], [ 4.025309086000107, 7.352240086000052 ], [ 4.034464837000087, 7.347937107000121 ], [ 4.040625096000099, 7.34368419700013 ], [ 4.048641204000035, 7.340092181999978 ], [ 4.061276913000086, 7.336884976000022 ], [ 4.072566985000037, 7.33600092000006 ], [ 4.077629090000073, 7.335224150999977 ], [ 4.08195686300013, 7.331925869000145 ], [ 4.08722209900003, 7.329302789000167 ], [ 4.096839905000024, 7.324991227000112 ], [ 4.105990886000029, 7.320227146000036 ], [ 4.110811234000039, 7.318764210000097 ], [ 4.112412930000062, 7.31804609400001 ], [ 4.119081975000029, 7.31752920200006 ], [ 4.115602017000072, 7.306141853000156 ], [ 4.113448143000028, 7.287032128000078 ], [ 4.114810944000055, 7.271321774000114 ], [ 4.110545159000139, 7.250168801000086 ], [ 4.103560925000124, 7.232294083000113 ], [ 4.102880001000074, 7.230330944000116 ], [ 4.096541881000064, 7.212111950000065 ], [ 4.090124130000106, 7.186382771000126 ], [ 4.087258816000144, 7.166128160000142 ], [ 4.082296848000112, 7.144759179000175 ], [ 4.077168941000139, 7.113009931000079 ], [ 4.077095985000142, 7.112482071000102 ] ] ] ] } }
]
}
